0 SL-3 R/B
1 13068U 82013B   13282.52675268  .00000749  00000-0  53670-4 0  2414
2 13068 081.2039 316.4446 0024561 075.6342 284.7604 15.02976796720873
0 SL-3 R/B
1 13068U 82013B   13283.79167745  .00000911  00000-0  65668-4 0  2422
2 13068 081.2036 315.0095 0024563 071.6403 288.7487 15.02977534721067
0 SL-3 R/B
1 13068U 82013B   13286.18837113  .00001422  00000-0  10343-3 0  2440
2 13068 081.2031 312.2902 0024464 063.8902 296.4833 15.02978016721422
0 SL-3 R/B
1 13068U 82013B   13287.51986568  .00001830  00000-0  13362-3 0  2455
2 13068 081.2030 310.7793 0024381 059.5938 300.7689 15.02979193721628
0 SL-3 R/B
1 13068U 82013B   13288.85135709  .00002332  00000-0  17073-3 0  2468
2 13068 081.2031 309.2683 0024272 055.2965 305.0538 15.02985276721824
0 SL-3 R/B
1 13068U 82013B   13290.18284560  .00002245  00000-0  16427-3 0  2473
2 13068 081.2032 307.7572 0024143 051.0071 309.3295 15.02991746722023
0 SL-3 R/B
1 13068U 82013B   13291.51432909  .00002045  00000-0  14948-3 0  2488
2 13068 081.2034 306.2461 0024011 046.8338 313.4885 15.02998450722220
0 SL-3 R/B
1 13068U 82013B   13292.84580666  .00002012  00000-0  14700-3 0  2490
2 13068 081.2034 304.7351 0023906 042.6279 317.6792 15.03004779722429
0 SL-3 R/B
1 13068U 82013B   13294.17727928  .00001733  00000-0  12637-3 0  2500
2 13068 081.2034 303.2241 0023786 038.5298 321.7615 15.03012819722628
0 SL-3 R/B
1 13068U 82013B   13295.44217158  .00001766  00000-0  12883-3 0  2510
2 13068 081.2034 301.7888 0023718 034.5934 325.6825 15.03018323722819
